0 FENGYUN 1C DEB
1 31507U 99025BWW 13281.47342844  .00000699  00000-0  21148-3 0  8297
2 31507 098.6034 278.9107 0139242 200.5644 313.6893 14.40138476338403
0 FENGYUN 1C DEB
1 31507U 99025BWW 13283.82941238  .00000766  00000-0  23043-3 0  8303
2 31507 098.6031 281.2790 0139396 193.5163 288.3115 14.40145713338746
0 FENGYUN 1C DEB
1 31507U 99025BWW 13285.84439938  .00000771  00000-0  23160-3 0  8313
2 31507 098.6029 283.3045 0139505 187.5030 295.0535 14.40147717339037
0 FENGYUN 1C DEB
1 31507U 99025BWW 13287.85860078  .00001261  00000-0  36981-3 0  8320
2 31507 098.6029 285.3289 0139616 181.4842 297.7523 14.40152620339323
0 FENGYUN 1C DEB
1 31507U 99025BWW 13290.20960769  .00001016  00000-0  30037-3 0  8336
2 31507 098.6032 287.6917 0139759 174.4870 246.6532 14.40158084339661
0 FENGYUN 1C DEB
1 31507U 99025BWW 13292.22445954  .00001069  00000-0  31538-3 0  8340
2 31507 098.6036 289.7166 0139878 168.4823 252.7880 14.40161658339954
0 FENGYUN 1C DEB
1 31507U 99025BWW 13294.23865919  .00001141  00000-0  33537-3 0  8353
2 31507 098.6038 291.7411 0139975 162.4843 255.5631 14.40166233340249
